SILVERSAT               
1 66909U 98067XV  26046.59711626  .00152984  00000+0  15099-2 0  9999
2 66909  51.6265 177.3802 0003132 311.6381  48.4346 15.64897678 11728
ISS OBJECT XW           
1 66910U 98067XW  26046.74754216  .00118667  00000+0  12637-2 0  9995
2 66910  51.6260 176.8795 0002504 340.6218  19.4681 15.63104887 11747
ISS OBJECT XX           
1 66911U 98067XX  26046.75262778  .00177969  00000+0  16427-2 0  9995
2 66911  51.6244 176.1597 0004247 329.4905  30.5843 15.66480829 11747
ISS OBJECT XY           
1 66912U 98067XY  26046.75993920  .00088147  00000+0  10697-2 0  9998
2 66912  51.6283 177.7206 0000643 341.8581  18.2389 15.59858677 11727
ISS OBJECT XZ           
1 67683U 98067XZ  26046.56141887  .00041718  00000+0  73306-3 0  9990
2 67683  51.6309 181.6425 0010523 114.1379 246.0711 15.50024026  1355
GXIBA-1                 
1 67684U 98067YA  26046.62188019  .00079760  00000+0  13427-2 0  9991
2 67684  51.6308 181.2974 0012194 107.9259 252.3061 15.50928895  1369
CORAL                   
1 67685U 98067YB  26046.62509760  .00049118  00000+0  85520-3 0  9990
2 67685  51.6310 181.3183 0012423 109.8045 250.4285 15.50186898  1361
ISS OBJECT YC           
1 67686U 98067YC  26046.62439075  .00056075  00000+0  97002-3 0  9990
2 67686  51.6313 181.3144 0007784  83.9210 276.2666 15.50363594  1361
LEOPARD                 
1 67687U 98067YD  26046.56095633  .00044466  00000+0  77880-3 0  9995
2 67687  51.6313 181.6402 0007861  86.0816 274.1071 15.50114031  1271
ISS OBJECT YE           
1 67688U 98067YE  26046.62464706  .00052367  00000+0  90932-3 0  9996
2 67688  51.6316 181.3167 0007759  84.5010 275.6864 15.50286221  1283
CREW DRAGON 12          
1 67796U 26031A   26046.56961129  .00012237  00000+0  23255-3 0  9998
2 67796  51.6318 181.6982 0010992 101.7612 258.4610 15.48625638   324
