CCSDS_OMM_VERS = 2.0
CREATION_DATE  = 
ORIGINATOR     = 

OBJECT_NAME    = SILVERSAT
OBJECT_ID      = 1998-067XV
CENTER_NAME    = EARTH
REF_FRAME      = TEME
TIME_SYSTEM    = UTC
MEAN_ELEMENT_THEORY = SGP/SGP4

EPOCH          = 2026-02-15T14:19:50.844864
MEAN_MOTION    = 15.64897678
ECCENTRICITY   = .0003132
INCLINATION    = 51.6265
RA_OF_ASC_NODE = 177.3802
ARG_OF_PERICENTER = 311.6381
MEAN_ANOMALY   = 48.4346

EPHEMERIS_TYPE = 0
CLASSIFICATION_TYPE = U
NORAD_CAT_ID   = 66909
ELEMENT_SET_NO = 999
REV_AT_EPOCH   = 1172
BSTAR          = .15099E-2
MEAN_MOTION_DOT = .152984E-2
MEAN_MOTION_DDOT = 0

CCSDS_OMM_VERS = 2.0
CREATION_DATE  = 
ORIGINATOR     = 

OBJECT_NAME    = ISS OBJECT XW
OBJECT_ID      = 1998-067XW
CENTER_NAME    = EARTH
REF_FRAME      = TEME
TIME_SYSTEM    = UTC
MEAN_ELEMENT_THEORY = SGP/SGP4

EPOCH          = 2026-02-15T17:56:27.642624
MEAN_MOTION    = 15.63104887
ECCENTRICITY   = .0002504
INCLINATION    = 51.6260
RA_OF_ASC_NODE = 176.8795
ARG_OF_PERICENTER = 340.6218
MEAN_ANOMALY   = 19.4681

EPHEMERIS_TYPE = 0
CLASSIFICATION_TYPE = U
NORAD_CAT_ID   = 66910
ELEMENT_SET_NO = 999
REV_AT_EPOCH   = 1174
BSTAR          = .12637E-2
MEAN_MOTION_DOT = .118667E-2
MEAN_MOTION_DDOT = 0

CCSDS_OMM_VERS = 2.0
CREATION_DATE  = 
ORIGINATOR     = 

OBJECT_NAME    = ISS OBJECT XX
OBJECT_ID      = 1998-067XX
CENTER_NAME    = EARTH
REF_FRAME      = TEME
TIME_SYSTEM    = UTC
MEAN_ELEMENT_THEORY = SGP/SGP4

EPOCH          = 2026-02-15T18:03:47.040192
MEAN_MOTION    = 15.66480829
ECCENTRICITY   = .0004247
INCLINATION    = 51.6244
RA_OF_ASC_NODE = 176.1597
ARG_OF_PERICENTER = 329.4905
MEAN_ANOMALY   = 30.5843

EPHEMERIS_TYPE = 0
CLASSIFICATION_TYPE = U
NORAD_CAT_ID   = 66911
ELEMENT_SET_NO = 999
REV_AT_EPOCH   = 1174
BSTAR          = .16427E-2
MEAN_MOTION_DOT = .177969E-2
MEAN_MOTION_DDOT = 0

CCSDS_OMM_VERS = 2.0
CREATION_DATE  = 
ORIGINATOR     = 

OBJECT_NAME    = ISS OBJECT XY
OBJECT_ID      = 1998-067XY
CENTER_NAME    = EARTH
REF_FRAME      = TEME
TIME_SYSTEM    = UTC
MEAN_ELEMENT_THEORY = SGP/SGP4

EPOCH          = 2026-02-15T18:14:18.746880
MEAN_MOTION    = 15.59858677
ECCENTRICITY   = .0000643
INCLINATION    = 51.6283
RA_OF_ASC_NODE = 177.7206
ARG_OF_PERICENTER = 341.8581
MEAN_ANOMALY   = 18.2389

EPHEMERIS_TYPE = 0
CLASSIFICATION_TYPE = U
NORAD_CAT_ID   = 66912
ELEMENT_SET_NO = 999
REV_AT_EPOCH   = 1172
BSTAR          = .10697E-2
MEAN_MOTION_DOT = .88147E-3
MEAN_MOTION_DDOT = 0

CCSDS_OMM_VERS = 2.0
CREATION_DATE  = 
ORIGINATOR     = 

OBJECT_NAME    = ISS OBJECT XZ
OBJECT_ID      = 1998-067XZ
CENTER_NAME    = EARTH
REF_FRAME      = TEME
TIME_SYSTEM    = UTC
MEAN_ELEMENT_THEORY = SGP/SGP4

EPOCH          = 2026-02-15T13:28:26.590368
MEAN_MOTION    = 15.50024026
ECCENTRICITY   = .0010523
INCLINATION    = 51.6309
RA_OF_ASC_NODE = 181.6425
ARG_OF_PERICENTER = 114.1379
MEAN_ANOMALY   = 246.0711

EPHEMERIS_TYPE = 0
CLASSIFICATION_TYPE = U
NORAD_CAT_ID   = 67683
ELEMENT_SET_NO = 999
REV_AT_EPOCH   = 135
BSTAR          = .73306E-3
MEAN_MOTION_DOT = .41718E-3
MEAN_MOTION_DDOT = 0

CCSDS_OMM_VERS = 2.0
CREATION_DATE  = 
ORIGINATOR     = 

OBJECT_NAME    = GXIBA-1
OBJECT_ID      = 1998-067YA
CENTER_NAME    = EARTH
REF_FRAME      = TEME
TIME_SYSTEM    = UTC
MEAN_ELEMENT_THEORY = SGP/SGP4

EPOCH          = 2026-02-15T14:55:30.448416
MEAN_MOTION    = 15.50928895
ECCENTRICITY   = .0012194
INCLINATION    = 51.6308
RA_OF_ASC_NODE = 181.2974
ARG_OF_PERICENTER = 107.9259
MEAN_ANOMALY   = 252.3061

EPHEMERIS_TYPE = 0
CLASSIFICATION_TYPE = U
NORAD_CAT_ID   = 67684
ELEMENT_SET_NO = 999
REV_AT_EPOCH   = 136
BSTAR          = .13427E-2
MEAN_MOTION_DOT = .7976E-3
MEAN_MOTION_DDOT = 0

CCSDS_OMM_VERS = 2.0
CREATION_DATE  = 
ORIGINATOR     = 

OBJECT_NAME    = CORAL
OBJECT_ID      = 1998-067YB
CENTER_NAME    = EARTH
REF_FRAME      = TEME
TIME_SYSTEM    = UTC
MEAN_ELEMENT_THEORY = SGP/SGP4

EPOCH          = 2026-02-15T15:00:08.432640
MEAN_MOTION    = 15.50186898
ECCENTRICITY   = .0012423
INCLINATION    = 51.6310
RA_OF_ASC_NODE = 181.3183
ARG_OF_PERICENTER = 109.8045
MEAN_ANOMALY   = 250.4285

EPHEMERIS_TYPE = 0
CLASSIFICATION_TYPE = U
NORAD_CAT_ID   = 67685
ELEMENT_SET_NO = 999
REV_AT_EPOCH   = 136
BSTAR          = .8552E-3
MEAN_MOTION_DOT = .49118E-3
MEAN_MOTION_DDOT = 0

CCSDS_OMM_VERS = 2.0
CREATION_DATE  = 
ORIGINATOR     = 

OBJECT_NAME    = ISS OBJECT YC
OBJECT_ID      = 1998-067YC
CENTER_NAME    = EARTH
REF_FRAME      = TEME
TIME_SYSTEM    = UTC
MEAN_ELEMENT_THEORY = SGP/SGP4

EPOCH          = 2026-02-15T14:59:07.360800
MEAN_MOTION    = 15.50363594
ECCENTRICITY   = .0007784
INCLINATION    = 51.6313
RA_OF_ASC_NODE = 181.3144
ARG_OF_PERICENTER = 83.9210
MEAN_ANOMALY   = 276.2666

EPHEMERIS_TYPE = 0
CLASSIFICATION_TYPE = U
NORAD_CAT_ID   = 67686
ELEMENT_SET_NO = 999
REV_AT_EPOCH   = 136
BSTAR          = .97002E-3
MEAN_MOTION_DOT = .56075E-3
MEAN_MOTION_DDOT = 0

CCSDS_OMM_VERS = 2.0
CREATION_DATE  = 
ORIGINATOR     = 

OBJECT_NAME    = LEOPARD
OBJECT_ID      = 1998-067YD
CENTER_NAME    = EARTH
REF_FRAME      = TEME
TIME_SYSTEM    = UTC
MEAN_ELEMENT_THEORY = SGP/SGP4

EPOCH          = 2026-02-15T13:27:46.626912
MEAN_MOTION    = 15.50114031
ECCENTRICITY   = .0007861
INCLINATION    = 51.6313
RA_OF_ASC_NODE = 181.6402
ARG_OF_PERICENTER = 86.0816
MEAN_ANOMALY   = 274.1071

EPHEMERIS_TYPE = 0
CLASSIFICATION_TYPE = U
NORAD_CAT_ID   = 67687
ELEMENT_SET_NO = 999
REV_AT_EPOCH   = 127
BSTAR          = .7788E-3
MEAN_MOTION_DOT = .44466E-3
MEAN_MOTION_DDOT = 0

CCSDS_OMM_VERS = 2.0
CREATION_DATE  = 
ORIGINATOR     = 

OBJECT_NAME    = ISS OBJECT YE
OBJECT_ID      = 1998-067YE
CENTER_NAME    = EARTH
REF_FRAME      = TEME
TIME_SYSTEM    = UTC
MEAN_ELEMENT_THEORY = SGP/SGP4

EPOCH          = 2026-02-15T14:59:29.505984
MEAN_MOTION    = 15.50286221
ECCENTRICITY   = .0007759
INCLINATION    = 51.6316
RA_OF_ASC_NODE = 181.3167
ARG_OF_PERICENTER = 84.5010
MEAN_ANOMALY   = 275.6864

EPHEMERIS_TYPE = 0
CLASSIFICATION_TYPE = U
NORAD_CAT_ID   = 67688
ELEMENT_SET_NO = 999
REV_AT_EPOCH   = 128
BSTAR          = .90932E-3
MEAN_MOTION_DOT = .52367E-3
MEAN_MOTION_DDOT = 0

CCSDS_OMM_VERS = 2.0
CREATION_DATE  = 
ORIGINATOR     = 

OBJECT_NAME    = CREW DRAGON 12
OBJECT_ID      = 2026-031A
CENTER_NAME    = EARTH
REF_FRAME      = TEME
TIME_SYSTEM    = UTC
MEAN_ELEMENT_THEORY = SGP/SGP4

EPOCH          = 2026-02-15T13:40:14.415456
MEAN_MOTION    = 15.48625638
ECCENTRICITY   = .00109928
INCLINATION    = 51.6318
RA_OF_ASC_NODE = 181.6982
ARG_OF_PERICENTER = 101.7612
MEAN_ANOMALY   = 258.4610

EPHEMERIS_TYPE = 0
CLASSIFICATION_TYPE = U
NORAD_CAT_ID   = 67796
ELEMENT_SET_NO = 999
REV_AT_EPOCH   = 32
BSTAR          = .2325502E-3
MEAN_MOTION_DOT = .12237E-3
MEAN_MOTION_DDOT = 0

